KUIPER-00071            
1 64818U 25151C   25234.91670139 -.00582521  00000+0 -27670-1 0  9990
2 64818  51.8906 107.2525 0004153 292.4942  11.3234 15.21024417  5315
KUIPER-00072            
1 64819U 25151D   25233.91051409  .00019016  00000+0  54521-3 0  9992
2 64819  51.8783 110.9572 0004862 283.6703  76.3742 15.35905929  5626
KUIPER-00073            
1 64820U 25151E   25234.91670139 -.00001786  00000+0 -64857-4 0  9993
2 64820  51.8889 107.2854 0009247 308.5160  27.1388 15.20911249  5854
KUIPER-00074            
1 64821U 25151F   25233.90722216  .00029009  00000+0  82326-3 0  9992
2 64821  51.8791 110.9366 0004921 284.3727  75.6712 15.35969098  5625
KUIPER-00075            
1 64822U 25151G   25234.93993125  .00027400  00000+0  75805-3 0  9993
2 64822  51.8782 105.8687 0005211 273.7986  86.2404 15.36792337  5781
KUIPER-00076            
1 64823U 25151H   25234.04008822  .00030088  00000+0  85592-3 0  9997
2 64823  51.8785 110.3268 0005413 274.2900  85.7468 15.35873003  5645
KUIPER-00077            
1 64824U 25151J   25234.91670139 -.00188691  00000+0 -60754-2 0  9998
2 64824  51.8809 106.1887 0005589 282.9336 212.9209 15.32413360  5354
KUIPER-00078            
1 64825U 25151K   25233.91180827  .00020914  00000+0  59900-3 0  9991
2 64825  51.8787 110.9713 0005942 288.4250  71.6090 15.35868599  5629
